[
    {
        "Altitude(m)": 607897.6430140832,
        "Argument of Periapsis(deg)": 0.0,
        "Eccentricity": 0.0,
        "Inclination(deg)": 60.0,
        "Latitude(deg)": -14.29309452631162,
        "Longitude(deg)": -83.38124238191305,
        "Mean Anomaly(deg)": -16.363600000000016,
        "RAAN(deg)": 25.0,
        "Satellite Name": "Test1 131",
        "Satellite Number": 131,
        "Semi-Major Axis(m)": 6980739.136638005,
        "Time(s)": 0
    },
    {
        "Altitude(m)": 607750.8433146139,
        "Argument of Periapsis(deg)": 0.00010418945913296404,
        "Eccentricity": 0.0,
        "Inclination(deg)": 60.0,
        "Latitude(deg)": -13.758935883242508,
        "Longitude(deg)": -83.09417335869203,
        "Mean Anomaly(deg)": -15.743493854538174,
        "RAAN(deg)": 24.99957995086026,
        "Satellite Name": "Test1 131",
        "Satellite Number": 131,
        "Semi-Major Axis(m)": 6980739.136638005,
        "Time(s)": 10
    }
]